STARLINK-31829          
1 59770U 24091T   26068.29616981 -.00004729  00000+0 -14782-3 0  9996
2 59770  53.1626  28.7501 0001412 111.3087 248.8065 15.30159829102947
HYPERFIELD-1A           
1 60562U 24149CY  26068.76488211  .00008569  00000+0  30052-3 0  9998
2 60562  97.3842 149.5066 0003865 313.7844  46.3076 15.29681349 86836
